ONEWEB-0366             
1 49292U 21090P   25315.13007758  .00000163  00000+0  40506-3 0  9992
2 49292  87.8993 333.1640 0001745  91.7414 268.3916 13.14503863198912
ONEWEB-0367             
1 49293U 21090Q   25315.28652790  .00000102  00000+0  21922-3 0  9995
2 49293  87.9185 317.8923 0002008  89.0565 271.0798 13.20773024201065
ONEWEB-0368             
1 49294U 21090R   25315.25969973  .00000014  00000+0  18591-5 0  9999
2 49294  87.9172 317.9304 0001877 116.1910 243.9416 13.20773103202216
ONEWEB-0369             
1 49295U 21090S   25315.13287498  .00000022  00000+0  21724-4 0  9992
2 49295  87.9221 348.3659 0001899  97.0060 263.1289 13.19726126197654
ONEWEB-0370             
1 49296U 21090T   25315.29599932  .00000085  00000+0  17596-3 0  9999
2 49296  87.9177 317.8976 0001950  81.2170 278.9184 13.20772119201102
ONEWEB-0371             
1 49297U 21090U   25315.14077410  .00000020  00000+0  18836-4 0  9994
2 49297  87.9222 348.3517 0001961  94.5316 265.6041 13.19726310197698
ONEWEB-0372             
1 49298U 21090V   25315.05755037  .00000012  00000+0 -20781-5 0  9998
2 49298  87.9175 317.9461 0001902  93.0861 267.0490 13.20771767201047
ONEWEB-0373             
1 49299U 21090W   25315.31178686 -.00000013  00000+0 -63178-4 0  9995
2 49299  87.9175 317.9088 0001754  88.5815 271.5519 13.20771833202267
ONEWEB-0374             
1 49300U 21090X   25315.11739987  .00000239  00000+0  60930-3 0  9993
2 49300  87.8995 333.1433 0001492 108.8380 251.2912 13.14502208198914
ONEWEB-0375             
1 49301U 21090Y   25315.29915912  .00000027  00000+0  35338-4 0  9997
2 49301  87.9175 317.8913 0001232  90.2561 269.8714 13.20771706201766
ONEWEB-0376             
1 49302U 21090Z   25315.13919122  .00000095  00000+0  20488-3 0  9992
2 49302  87.9229 348.3377 0002074  98.5290 261.6078 13.19724880197693
ONEWEB-0377             
1 49303U 21090AA  25315.05782389  .00000041  00000+0  69738-4 0  9990
2 49303  87.9183 317.9380 0001769  84.4952 275.6383 13.20771515201721
ONEWEB-0378             
1 49304U 21090AB  25315.30718903  .00000053  00000+0  99348-4 0  9993
2 49304  87.9182 317.9032 0001690  92.2369 267.8958 13.20773091201022
ONEWEB-0379             
1 49305U 21090AC  25315.11264476  .00000158  00000+0  39157-3 0  9991
2 49305  87.8994 333.1529 0001858  97.7641 262.3700 13.14502427198917
ONEWEB-0380             
1 49306U 21090AD  25315.13603372  .00000047  00000+0  85183-4 0  9994
2 49306  87.9226 348.3621 0001674  92.3757 267.7567 13.19726430197661
ONEWEB-0381             
1 49307U 21090AE  25315.05452742  .00000092  00000+0  19378-3 0  9991
2 49307  87.9177 317.9434 0001586  90.0026 270.1289 13.20772067201032
ONEWEB-0382             
1 49308U 21090AF  25315.26917726  .00000071  00000+0  14226-3 0  9997
2 49308  87.9184 317.8939 0001567  96.4311 263.7000 13.20771590201057
