[{"OBJECT_NAME":"ONEWEB-0366","OBJECT_ID":"2021-090P","EPOCH":"2025-11-11T03:07:18.702912","MEAN_MOTION":13.14503863,"ECCENTRICITY":0.00017453,"INCLINATION":87.8993,"RA_OF_ASC_NODE":333.164,"ARG_OF_PERICENTER":91.7414,"MEAN_ANOMALY":268.3916,"EPHEMERIS_TYPE":0,"CLASSIFICATION_TYPE":"U","NORAD_CAT_ID":49292,"ELEMENT_SET_NO":999,"REV_AT_EPOCH":19891,"BSTAR":0.00040506424,"MEAN_MOTION_DOT":1.63e-6,"MEAN_MOTION_DDOT":0},{"OBJECT_NAME":"ONEWEB-0367","OBJECT_ID":"2021-090Q","EPOCH":"2025-11-11T06:52:36.010560","MEAN_MOTION":13.20773024,"ECCENTRICITY":0.00020088,"INCLINATION":87.9185,"RA_OF_ASC_NODE":317.8923,"ARG_OF_PERICENTER":89.0565,"MEAN_ANOMALY":271.0798,"EPHEMERIS_TYPE":0,"CLASSIFICATION_TYPE":"U","NORAD_CAT_ID":49293,"ELEMENT_SET_NO":999,"REV_AT_EPOCH":20106,"BSTAR":0.00021922258,"MEAN_MOTION_DOT":1.02e-6,"MEAN_MOTION_DDOT":0},{"OBJECT_NAME":"ONEWEB-0368","OBJECT_ID":"2021-090R","EPOCH":"2025-11-11T06:13:58.056672","MEAN_MOTION":13.20773103,"ECCENTRICITY":0.00018772,"INCLINATION":87.9172,"RA_OF_ASC_NODE":317.9304,"ARG_OF_PERICENTER":116.191,"MEAN_ANOMALY":243.9416,"EPHEMERIS_TYPE":0,"CLASSIFICATION_TYPE":"U","NORAD_CAT_ID":49294,"ELEMENT_SET_NO":999,"REV_AT_EPOCH":20221,"BSTAR":1.85907e-6,"MEAN_MOTION_DOT":1.4e-7,"MEAN_MOTION_DDOT":0},{"OBJECT_NAME":"ONEWEB-0369","OBJECT_ID":"2021-090S","EPOCH":"2025-11-11T03:11:20.398272","MEAN_MOTION":13.19726126,"ECCENTRICITY":0.0001899,"INCLINATION":87.9221,"RA_OF_ASC_NODE":348.3659,"ARG_OF_PERICENTER":97.006,"MEAN_ANOMALY":263.1289,"EPHEMERIS_TYPE":0,"CLASSIFICATION_TYPE":"U","NORAD_CAT_ID":49295,"ELEMENT_SET_NO":999,"REV_AT_EPOCH":19765,"BSTAR":2.1723914e-5,"MEAN_MOTION_DOT":2.2e-7,"MEAN_MOTION_DDOT":0},{"OBJECT_NAME":"ONEWEB-0370","OBJECT_ID":"2021-090T","EPOCH":"2025-11-11T07:06:14.341248","MEAN_MOTION":13.20772119,"ECCENTRICITY":0.000195,"INCLINATION":87.9177,"RA_OF_ASC_NODE":317.8976,"ARG_OF_PERICENTER":81.217,"MEAN_ANOMALY":278.9184,"EPHEMERIS_TYPE":0,"CLASSIFICATION_TYPE":"U","NORAD_CAT_ID":49296,"ELEMENT_SET_NO":999,"REV_AT_EPOCH":20110,"BSTAR":0.00017596245,"MEAN_MOTION_DOT":8.5e-7,"MEAN_MOTION_DDOT":0},{"OBJECT_NAME":"ONEWEB-0371","OBJECT_ID":"2021-090U","EPOCH":"2025-11-11T03:22:42.882240","MEAN_MOTION":13.1972631,"ECCENTRICITY":0.00019613,"INCLINATION":87.9222,"RA_OF_ASC_NODE":348.3517,"ARG_OF_PERICENTER":94.5316,"MEAN_ANOMALY":265.6041,"EPHEMERIS_TYPE":0,"CLASSIFICATION_TYPE":"U","NORAD_CAT_ID":49297,"ELEMENT_SET_NO":999,"REV_AT_EPOCH":19769,"BSTAR":1.8835729e-5,"MEAN_MOTION_DOT":2.0e-7,"MEAN_MOTION_DDOT":0},{"OBJECT_NAME":"ONEWEB-0372","OBJECT_ID":"2021-090V","EPOCH":"2025-11-11T01:22:52.351968","MEAN_MOTION":13.20771767,"ECCENTRICITY":0.00019026,"INCLINATION":87.9175,"RA_OF_ASC_NODE":317.9461,"ARG_OF_PERICENTER":93.0861,"MEAN_ANOMALY":267.049,"EPHEMERIS_TYPE":0,"CLASSIFICATION_TYPE":"U","NORAD_CAT_ID":49298,"ELEMENT_SET_NO":999,"REV_AT_EPOCH":20104,"BSTAR":-2.078078e-6,"MEAN_MOTION_DOT":1.2e-7,"MEAN_MOTION_DDOT":0},{"OBJECT_NAME":"ONEWEB-0373","OBJECT_ID":"2021-090W","EPOCH":"2025-11-11T07:28:58.384704","MEAN_MOTION":13.20771833,"ECCENTRICITY":0.00017546,"INCLINATION":87.9175,"RA_OF_ASC_NODE":317.9088,"ARG_OF_PERICENTER":88.5815,"MEAN_ANOMALY":271.5519,"EPHEMERIS_TYPE":0,"CLASSIFICATION_TYPE":"U","NORAD_CAT_ID":49299,"ELEMENT_SET_NO":999,"REV_AT_EPOCH":20226,"BSTAR":-6.3177604e-5,"MEAN_MOTION_DOT":-1.3e-7,"MEAN_MOTION_DDOT":0},{"OBJECT_NAME":"ONEWEB-0374","OBJECT_ID":"2021-090X","EPOCH":"2025-11-11T02:49:03.348768","MEAN_MOTION":13.14502208,"ECCENTRICITY":0.00014927,"INCLINATION":87.8995,"RA_OF_ASC_NODE":333.1433,"ARG_OF_PERICENTER":108.838,"MEAN_ANOMALY":251.2912,"EPHEMERIS_TYPE":0,"CLASSIFICATION_TYPE":"U","NORAD_CAT_ID":49300,"ELEMENT_SET_NO":999,"REV_AT_EPOCH":19891,"BSTAR":0.00060929595,"MEAN_MOTION_DOT":2.39e-6,"MEAN_MOTION_DDOT":0},{"OBJECT_NAME":"ONEWEB-0375","OBJECT_ID":"2021-090Y","EPOCH":"2025-11-11T07:10:47.347968","MEAN_MOTION":13.20771706,"ECCENTRICITY":0.0001232,"INCLINATION":87.9175,"RA_OF_ASC_NODE":317.8913,"ARG_OF_PERICENTER":90.2561,"MEAN_ANOMALY":269.8714,"EPHEMERIS_TYPE":0,"CLASSIFICATION_TYPE":"U","NORAD_CAT_ID":49301,"ELEMENT_SET_NO":999,"REV_AT_EPOCH":20176,"BSTAR":3.5337979e-5,"MEAN_MOTION_DOT":2.7e-7,"MEAN_MOTION_DDOT":0},{"OBJECT_NAME":"ONEWEB-0376","OBJECT_ID":"2021-090Z","EPOCH":"2025-11-11T03:20:26.121408","MEAN_MOTION":13.1972488,"ECCENTRICITY":0.0002074,"INCLINATION":87.9229,"RA_OF_ASC_NODE":348.3377,"ARG_OF_PERICENTER":98.529,"MEAN_ANOMALY":261.6078,"EPHEMERIS_TYPE":0,"CLASSIFICATION_TYPE":"U","NORAD_CAT_ID":49302,"ELEMENT_SET_NO":999,"REV_AT_EPOCH":19769,"BSTAR":0.00020487741,"MEAN_MOTION_DOT":9.5e-7,"MEAN_MOTION_DDOT":0},{"OBJECT_NAME":"ONEWEB-0377","OBJECT_ID":"2021-090AA","EPOCH":"2025-11-11T01:23:15.984096","MEAN_MOTION":13.20771515,"ECCENTRICITY":0.00017697,"INCLINATION":87.9183,"RA_OF_ASC_NODE":317.938,"ARG_OF_PERICENTER":84.4952,"MEAN_ANOMALY":275.6383,"EPHEMERIS_TYPE":0,"CLASSIFICATION_TYPE":"U","NORAD_CAT_ID":49303,"ELEMENT_SET_NO":999,"REV_AT_EPOCH":20172,"BSTAR":6.9738068e-5,"MEAN_MOTION_DOT":4.1e-7,"MEAN_MOTION_DDOT":0},{"OBJECT_NAME":"ONEWEB-0378","OBJECT_ID":"2021-090AB","EPOCH":"2025-11-11T07:22:21.132192","MEAN_MOTION":13.20773091,"ECCENTRICITY":0.000169,"INCLINATION":87.9182,"RA_OF_ASC_NODE":317.9032,"ARG_OF_PERICENTER":92.2369,"MEAN_ANOMALY":267.8958,"EPHEMERIS_TYPE":0,"CLASSIFICATION_TYPE":"U","NORAD_CAT_ID":49304,"ELEMENT_SET_NO":999,"REV_AT_EPOCH":20102,"BSTAR":9.934765e-5,"MEAN_MOTION_DOT":5.3e-7,"MEAN_MOTION_DDOT":0},{"OBJECT_NAME":"ONEWEB-0379","OBJECT_ID":"2021-090AC","EPOCH":"2025-11-11T02:42:12.507264","MEAN_MOTION":13.14502427,"ECCENTRICITY":0.0001858,"INCLINATION":87.8994,"RA_OF_ASC_NODE":333.1529,"ARG_OF_PERICENTER":97.7641,"MEAN_ANOMALY":262.37,"EPHEMERIS_TYPE":0,"CLASSIFICATION_TYPE":"U","NORAD_CAT_ID":49305,"ELEMENT_SET_NO":999,"REV_AT_EPOCH":19891,"BSTAR":0.00039156879,"MEAN_MOTION_DOT":1.58e-6,"MEAN_MOTION_DDOT":0},{"OBJECT_NAME":"ONEWEB-0380","OBJECT_ID":"2021-090AD","EPOCH":"2025-11-11T03:15:53.313408","MEAN_MOTION":13.1972643,"ECCENTRICITY":0.0001674,"INCLINATION":87.9226,"RA_OF_ASC_NODE":348.3621,"ARG_OF_PERICENTER":92.3757,"MEAN_ANOMALY":267.7567,"EPHEMERIS_TYPE":0,"CLASSIFICATION_TYPE":"U","NORAD_CAT_ID":49306,"ELEMENT_SET_NO":999,"REV_AT_EPOCH":19766,"BSTAR":8.5183253e-5,"MEAN_MOTION_DOT":4.7e-7,"MEAN_MOTION_DDOT":0},{"OBJECT_NAME":"ONEWEB-0381","OBJECT_ID":"2021-090AE","EPOCH":"2025-11-11T01:18:31.169088","MEAN_MOTION":13.20772067,"ECCENTRICITY":0.00015866,"INCLINATION":87.9177,"RA_OF_ASC_NODE":317.9434,"ARG_OF_PERICENTER":90.0026,"MEAN_ANOMALY":270.1289,"EPHEMERIS_TYPE":0,"CLASSIFICATION_TYPE":"U","NORAD_CAT_ID":49307,"ELEMENT_SET_NO":999,"REV_AT_EPOCH":20103,"BSTAR":0.00019378242,"MEAN_MOTION_DOT":9.2e-7,"MEAN_MOTION_DDOT":0},{"OBJECT_NAME":"ONEWEB-0382","OBJECT_ID":"2021-090AF","EPOCH":"2025-11-11T06:27:36.915264","MEAN_MOTION":13.2077159,"ECCENTRICITY":0.00015673,"INCLINATION":87.9184,"RA_OF_ASC_NODE":317.8939,"ARG_OF_PERICENTER":96.4311,"MEAN_ANOMALY":263.7,"EPHEMERIS_TYPE":0,"CLASSIFICATION_TYPE":"U","NORAD_CAT_ID":49308,"ELEMENT_SET_NO":999,"REV_AT_EPOCH":20105,"BSTAR":0.00014225772,"MEAN_MOTION_DOT":7.1e-7,"MEAN_MOTION_DDOT":0}]
